{
  "norad_id": 67512,
  "name": "STARLINK-36538",
  "history": [
    {
      "epoch": "2026-03-28T17:55:08.228928Z",
      "apogee_km": 483.80932795420085,
      "perigee_km": 482.1949019204567,
      "latitude_deg": 3.347399520258181e-05,
      "longitude_deg": 112.06010740270249,
      "height_km": 482.86151291246665,
      "semi_major_axis_km": 6861.1391149373285,
      "eccentricity": 0.00011765,
      "inclination_deg": 42.9999,
      "raan_deg": 207.007,
      "arg_perigee_deg": 264.1041,
      "mean_anomaly_deg": 95.9677,
      "mean_motion_rev_day": 15.2759569
    },
    {
      "epoch": "2026-03-29T00:11:45.824928Z",
      "apogee_km": 483.6894828928789,
      "perigee_km": 482.31999900138544,
      "latitude_deg": 5.0443779462581744e-05,
      "longitude_deg": 16.165883657606006,
      "height_km": 482.794605738011,
      "semi_major_axis_km": 6861.141740947131,
      "eccentricity": 9.98e-05,
      "inclination_deg": 43.0001,
      "raan_deg": 205.5272,
      "arg_perigee_deg": 268.8699,
      "mean_anomaly_deg": 91.2039,
      "mean_motion_rev_day": 15.27594813
    },
    {
      "epoch": "2026-03-29T23:44:07.394208Z",
      "apogee_km": 484.1151601073361,
      "perigee_km": 481.99820740814994,
      "latitude_deg": -8.584834734798645e-06,
      "longitude_deg": 16.572523487632786,
      "height_km": 482.5756410208686,
      "semi_major_axis_km": 6861.193683757743,
      "eccentricity": 0.00015427,
      "inclination_deg": 43.0017,
      "raan_deg": 199.9905,
      "arg_perigee_deg": 284.1106,
      "mean_anomaly_deg": 75.9574,
      "mean_motion_rev_day": 15.27577466
    },
    {
      "epoch": "2026-03-30T13:51:32.009184Z",
      "apogee_km": 484.19229586178244,
      "perigee_km": 481.83631372674336,
      "latitude_deg": -3.13382169361019e-05,
      "longitude_deg": 160.81670579189304,
      "height_km": 482.6417530949075,
      "semi_major_axis_km": 6861.151304794263,
      "eccentricity": 0.00017169,
      "inclination_deg": 43.002,
      "raan_deg": 196.6673,
      "arg_perigee_deg": 277.3031,
      "mean_anomaly_deg": 82.7625,
      "mean_motion_rev_day": 15.27591619
    },
    {
      "epoch": "2026-03-30T16:59:50.594208Z",
      "apogee_km": 483.9489290955071,
      "perigee_km": 481.97265848698316,
      "latitude_deg": 2.166735625563993e-05,
      "longitude_deg": 112.87173142266687,
      "height_km": 482.6233144134269,
      "semi_major_axis_km": 6861.097793791245,
      "eccentricity": 0.00014402,
      "inclination_deg": 43.0016,
      "raan_deg": 195.9286,
      "arg_perigee_deg": 276.648,
      "mean_anomaly_deg": 83.4208,
      "mean_motion_rev_day": 15.2760949
    },
    {
      "epoch": "2026-03-31T13:23:52.492416Z",
      "apogee_km": 483.7743122880647,
      "perigee_km": 482.1679896477608,
      "latitude_deg": 3.142741669523689e-05,
      "longitude_deg": 161.22371386965474,
      "height_km": 482.94341551262954,
      "semi_major_axis_km": 6861.1081509679125,
      "eccentricity": 0.00011706,
      "inclination_deg": 42.9992,
      "raan_deg": 191.1263,
      "arg_perigee_deg": 255.8818,
      "mean_anomaly_deg": 104.1904,
      "mean_motion_rev_day": 15.27606031
    },
    {
      "epoch": "2026-04-01T12:56:13.826688Z",
      "apogee_km": 483.4599699197088,
      "perigee_km": 482.63937199386146,
      "latitude_deg": 2.9518389069895754e-05,
      "longitude_deg": 161.63039728324858,
      "height_km": 482.66317305787305,
      "semi_major_axis_km": 6861.186670956785,
      "eccentricity": 5.98e-05,
      "inclination_deg": 42.9972,
      "raan_deg": 185.5886,
      "arg_perigee_deg": 293.2789,
      "mean_anomaly_deg": 66.8,
      "mean_motion_rev_day": 15.27579808
    },
    {
      "epoch": "2026-04-02T14:02:43.514304Z",
      "apogee_km": 483.8368601294933,
      "perigee_km": 482.0041344508163,
      "latitude_deg": 1.899850955477745e-06,
      "longitude_deg": 138.06851135786957,
      "height_km": 482.57346911907354,
      "semi_major_axis_km": 6861.057497290154,
      "eccentricity": 0.00013356,
      "inclination_deg": 43.0018,
      "raan_deg": 179.6816,
      "arg_perigee_deg": 277.7694,
      "mean_anomaly_deg": 82.3006,
      "mean_motion_rev_day": 15.27622948
    },
    {
      "epoch": "2026-04-03T12:00:54.679968Z",
      "apogee_km": 485.02087138380284,
      "perigee_km": 481.2434682550502,
      "latitude_deg": 1.0212284324627877e-05,
      "longitude_deg": 162.44933055303432,
      "height_km": 482.7137752670572,
      "semi_major_axis_km": 6861.269169819427,
      "eccentricity": 0.00027527,
      "inclination_deg": 43.0018,
      "raan_deg": 174.5112,
      "arg_perigee_deg": 275.9661,
      "mean_anomaly_deg": 84.0877,
      "mean_motion_rev_day": 15.27552257
    },
    {
      "epoch": "2026-04-04T11:33:16.782336Z",
      "apogee_km": 485.050465824771,
      "perigee_km": 480.94764368674805,
      "latitude_deg": 5.303627170164179e-05,
      "longitude_deg": 162.8532507187743,
      "height_km": 482.5448888857618,
      "semi_major_axis_km": 6861.136054755759,
      "eccentricity": 0.00029899,
      "inclination_deg": 43.0047,
      "raan_deg": 168.9739,
      "arg_perigee_deg": 276.5091,
      "mean_anomaly_deg": 83.5421,
      "mean_motion_rev_day": 15.27596712
    },
    {
      "epoch": "2026-04-05T12:39:47.505024Z",
      "apogee_km": 484.3246548642428,
      "perigee_km": 481.6698075848126,
      "latitude_deg": -5.0913957062623365e-05,
      "longitude_deg": 139.28435638128164,
      "height_km": 483.0483954569971,
      "semi_major_axis_km": 6861.134231224528,
      "eccentricity": 0.00019347,
      "inclination_deg": 43.0009,
      "raan_deg": 163.0643,
      "arg_perigee_deg": 258.0874,
      "mean_anomaly_deg": 101.976,
      "mean_motion_rev_day": 15.27597321
    },
    {
      "epoch": "2026-04-05T15:48:06.223104Z",
      "apogee_km": 484.25485477914026,
      "perigee_km": 481.7601426394094,
      "latitude_deg": 9.82241889880644e-06,
      "longitude_deg": 91.34093395402449,
      "height_km": 482.93442193557854,
      "semi_major_axis_km": 6861.144498709275,
      "eccentricity": 0.0001818,
      "inclination_deg": 43.0033,
      "raan_deg": 162.3277,
      "arg_perigee_deg": 263.1139,
      "mean_anomaly_deg": 96.9506,
      "mean_motion_rev_day": 15.27593892
    },
    {
      "epoch": "2026-04-06T04:21:21.291552Z",
      "apogee_km": 483.9114813306469,
      "perigee_km": 482.0449835428144,
      "latitude_deg": 2.2010896811302853e-05,
      "longitude_deg": -100.44302139375748,
      "height_km": 482.9344123493124,
      "semi_major_axis_km": 6861.11523243673,
      "eccentricity": 0.00013602,
      "inclination_deg": 42.9996,
      "raan_deg": 159.3721,
      "arg_perigee_deg": 258.904,
      "mean_anomaly_deg": 101.1659,
      "mean_motion_rev_day": 15.27603666
    },
    {
      "epoch": "2026-04-07T10:10:18.774624Z",
      "apogee_km": 483.5383733142171,
      "perigee_km": 482.39435293944916,
      "latitude_deg": -1.8745076821002333e-05,
      "longitude_deg": 164.0764207930645,
      "height_km": 482.70495708781823,
      "semi_major_axis_km": 6861.103363126833,
      "eccentricity": 8.337e-05,
      "inclination_deg": 43.0002,
      "raan_deg": 152.3556,
      "arg_perigee_deg": 273.7732,
      "mean_anomaly_deg": 86.3024,
      "mean_motion_rev_day": 15.2760763
    },
    {
      "epoch": "2026-04-08T03:26:02.118912Z",
      "apogee_km": 484.49146813951484,
      "perigee_km": 481.5186725032854,
      "latitude_deg": 4.644463602766686e-05,
      "longitude_deg": -99.62403981492241,
      "height_km": 482.5166956140202,
      "semi_major_axis_km": 6861.1420703214,
      "eccentricity": 0.00021664,
      "inclination_deg": 43.0013,
      "raan_deg": 148.2946,
      "arg_perigee_deg": 280.302,
      "mean_anomaly_deg": 79.7588,
      "mean_motion_rev_day": 15.27594703
    },
    {
      "epoch": "2026-04-09T09:15:00.371808Z",
      "apogee_km": 483.57299299609986,
      "perigee_km": 482.4959263003648,
      "latitude_deg": -4.305763858835383e-06,
      "longitude_deg": 164.89067483987228,
      "height_km": 482.8631510034164,
      "semi_major_axis_km": 6861.1714596482325,
      "eccentricity": 7.849e-05,
      "inclination_deg": 42.9978,
      "raan_deg": 141.2766,
      "arg_perigee_deg": 264.3755,
      "mean_anomaly_deg": 95.7007,
      "mean_motion_rev_day": 15.27584888
    },
    {
      "epoch": "2026-04-10T11:55:39.703584Z",
      "apogee_km": 484.14835488028166,
      "perigee_km": 481.8773142850341,
      "latitude_deg": -1.1420026088537715e-05,
      "longitude_deg": 117.35737210185594,
      "height_km": 482.66248133873137,
      "semi_major_axis_km": 6861.149834582658,
      "eccentricity": 0.0001655,
      "inclination_deg": 43.0025,
      "raan_deg": 135.0028,
      "arg_perigee_deg": 276.4495,
      "mean_anomaly_deg": 83.6168,
      "mean_motion_rev_day": 15.2759211
    }
  ]
}